start=new Date('2023-03-03T00:00:00.000Z').valueOf();
sats=[{"NORAD_CAT_ID":"45377","MEAN_ELEMENT_THEORY":"SGP4","ELEMENT_SET_NO":"999","FILE":"3849487","MEAN_MOTION_DDOT":"0.0000000000000","ECCENTRICITY":"0.00011440","REV_AT_EPOCH":"16349","RCS_SIZE":"LARGE","OBJECT_NAME":"STARLINK-1305","INCLINATION":"53.0555","TIME_SYSTEM":"UTC","LAUNCH_DATE":"2020-03-18","TLE_LINE2":"2 45377  53.0555  77.9598 0001144  99.8109 260.3009 15.06413086163499","PERIAPSIS":"546.381","ARG_OF_PERICENTER":"99.8109","CENTER_NAME":"EARTH","CLASSIFICATION_TYPE":"U","BSTAR":"0.00119230000000","PERIOD":"95.591","TLE_LINE1":"1 45377U 20019T   23061.73739787  .00017529  00000-0  11923-2 0  9993","SITE":"AFETR","OBJECT_TYPE":"PAYLOAD","EPHEMERIS_TYPE":"0","MEAN_MOTION_DOT":"0.00017529","REF_FRAME":"TEME","MEAN_MOTION":"15.06413086","DECAY_DATE":null,"GP_ID":"227357688","OBJECT_ID":"2020-019T","MEAN_ANOMALY":"260.3009","EPOCH":"2023-03-02T17:41:51.175968","RA_OF_ASC_NODE":"77.9598","SEMIMAJOR_AXIS":"6925.308","COUNTRY_CODE":"US","APOAPSIS":"547.966"},{"EPHEMERIS_TYPE":"0","REF_FRAME":"TEME","MEAN_MOTION_DOT":"0.00017758","PERIOD":"95.591","BSTAR":"0.00120730000000","TLE_LINE1":"1 45378U 20019U   23061.52728346  .00017758  00000-0  12073-2 0  9991","SITE":"AFETR","OBJECT_TYPE":"PAYLOAD","OBJECT_ID":"2020-019U","MEAN_ANOMALY":"246.8169","MEAN_MOTION":"15.06423570","DECAY_DATE":null,"GP_ID":"227357938","COUNTRY_CODE":"US","SEMIMAJOR_AXIS":"6925.276","APOAPSIS":"548.127","EPOCH":"2023-03-02T12:39:17.290944","RA_OF_ASC_NODE":"78.9027","FILE":"3849487","MEAN_ELEMENT_THEORY":"SGP4","NORAD_CAT_ID":"45378","ELEMENT_SET_NO":"999","ARG_OF_PERICENTER":"113.2970","CENTER_NAME":"EARTH","CLASSIFICATION_TYPE":"U","REV_AT_EPOCH":"16346","INCLINATION":"53.0533","RCS_SIZE":"LARGE","TIME_SYSTEM":"UTC","OBJECT_NAME":"STARLINK-1310","MEAN_MOTION_DDOT":"0.0000000000000","ECCENTRICITY":"0.00014240","PERIAPSIS":"546.155","TLE_LINE2":"2 45378  53.0533  78.9027 0001424 113.2970 246.8169 15.06423570163464","LAUNCH_DATE":"2020-03-18"},{"EPHEMERIS_TYPE":"0","REF_FRAME":"TEME","MEAN_MOTION_DOT":"0.00014397","PERIOD":"95.592","BSTAR":"0.00098325000000","TLE_LINE1":"1 45379U 20019V   23061.73002668  .00014397  00000-0  98325-3 0  9998","SITE":"AFETR","OBJECT_TYPE":"PAYLOAD","OBJECT_ID":"2020-019V","MEAN_ANOMALY":"259.2701","MEAN_MOTION":"15.06406407","DECAY_DATE":null,"GP_ID":"227358196","COUNTRY_CODE":"US","SEMIMAJOR_AXIS":"6925.329","APOAPSIS":"548.133","EPOCH":"2023-03-02T17:31:14.305152","RA_OF_ASC_NODE":"77.9975","FILE":"3849487","MEAN_ELEMENT_THEORY":"SGP4","NORAD_CAT_ID":"45379","ELEMENT_SET_NO":"999","ARG_OF_PERICENTER":"100.8440","CENTER_NAME":"EARTH","CLASSIFICATION_TYPE":"U","REV_AT_EPOCH":"16349","RCS_SIZE":"LARGE","TIME_SYSTEM":"UTC","INCLINATION":"53.0545","OBJECT_NAME":"STARLINK-1319","MEAN_MOTION_DDOT":"0.0000000000000","ECCENTRICITY":"0.00013560","PERIAPSIS":"546.255","TLE_LINE2":"2 45379  53.0545  77.9975 0001356 100.8440 259.2701 15.06406407163490","LAUNCH_DATE":"2020-03-18"},{"APOAPSIS":"548.103","SEMIMAJOR_AXIS":"6925.322","COUNTRY_CODE":"US","RA_OF_ASC_NODE":"59.1977","EPOCH":"2023-03-02T11:06:26.147232","MEAN_ANOMALY":"266.9223","OBJECT_ID":"2020-019W","DECAY_DATE":null,"GP_ID":"227358940","MEAN_MOTION":"15.06408636","REF_FRAME":"TEME","MEAN_MOTION_DOT":"0.00025053","EPHEMERIS_TYPE":"0","OBJECT_TYPE":"PAYLOAD","TLE_LINE1":"1 45380U 20019W   23061.46280263  .00025053  00000-0  16944-2 0  9996","SITE":"AFETR","PERIOD":"95.592","BSTAR":"0.00169440000000","CLASSIFICATION_TYPE":"U","CENTER_NAME":"EARTH","ARG_OF_PERICENTER":"93.1917","PERIAPSIS":"546.272","TLE_LINE2":"2 45380  53.0537  59.1977 0001322  93.1917 266.9223 15.06408636163729","LAUNCH_DATE":"2020-03-18","INCLINATION":"53.0537","RCS_SIZE":"LARGE","OBJECT_NAME":"STARLINK-1207","TIME_SYSTEM":"UTC","REV_AT_EPOCH":"16372","ECCENTRICITY":"0.00013220","MEAN_MOTION_DDOT":"0.0000000000000","FILE":"3849487","ELEMENT_SET_NO":"999","MEAN_ELEMENT_THEORY":"SGP4","NORAD_CAT_ID":"45380"},{"OBJECT_TYPE":"PAYLOAD","TLE_LINE1":"1 45381U 20019X   23061.47385369  .00021113  00000-0  14315-2 0  9994","SITE":"AFETR","PERIOD":"95.591","BSTAR":"0.00143150000000","REF_FRAME":"TEME","MEAN_MOTION_DOT":"0.00021113","EPHEMERIS_TYPE":"0","APOAPSIS":"548.055","SEMIMAJOR_AXIS":"6925.304","COUNTRY_CODE":"US","RA_OF_ASC_NODE":"59.1501","EPOCH":"2023-03-02T11:22:20.958816","MEAN_ANOMALY":"273.7279","OBJECT_ID":"2020-019X","DECAY_DATE":null,"GP_ID":"227357196","MEAN_MOTION":"15.06414408","ELEMENT_SET_NO":"999","MEAN_ELEMENT_THEORY":"SGP4","NORAD_CAT_ID":"45381","FILE":"3849487","PERIAPSIS":"546.284","TLE_LINE2":"2 45381  53.0527  59.1501 0001279  86.3856 273.7279 15.06414408163720","LAUNCH_DATE":"2020-03-18","INCLINATION":"53.0527","RCS_SIZE":"LARGE","OBJECT_NAME":"STARLINK-1258","TIME_SYSTEM":"UTC","REV_AT_EPOCH":"16372","ECCENTRICITY":"0.00012790","MEAN_MOTION_DDOT":"0.0000000000000","CLASSIFICATION_TYPE":"U","CENTER_NAME":"EARTH","ARG_OF_PERICENTER":"86.3856"},{"MEAN_ELEMENT_THEORY":"SGP4","NORAD_CAT_ID":"45382","ELEMENT_SET_NO":"999","FILE":"3849487","TIME_SYSTEM":"UTC","RCS_SIZE":"LARGE","INCLINATION":"53.0487","OBJECT_NAME":"STARLINK-1264","REV_AT_EPOCH":"16364","ECCENTRICITY":"0.00042210","MEAN_MOTION_DDOT":"0.0000000000000","PERIAPSIS":"516.964","LAUNCH_DATE":"2020-03-18","TLE_LINE2":"2 45382  53.0487  53.6739 0004221  84.6875 275.4599 15.15364015163643","CLASSIFICATION_TYPE":"U","ARG_OF_PERICENTER":"84.6875","CENTER_NAME":"EARTH","SITE":"AFETR","TLE_LINE1":"1 45382U 20019Y   23061.69154779  .00036239  00000-0  19046-2 0  9999","PERIOD":"95.027","BSTAR":"0.00190460000000","OBJECT_TYPE":"PAYLOAD","EPHEMERIS_TYPE":"0","REF_FRAME":"TEME","MEAN_MOTION_DOT":"0.00036239","MEAN_ANOMALY":"275.4599","OBJECT_ID":"2020-019Y","GP_ID":"227357445","DECAY_DATE":null,"MEAN_MOTION":"15.15364015","APOAPSIS":"522.787","COUNTRY_CODE":"US","SEMIMAJOR_AXIS":"6898.011","RA_OF_ASC_NODE":"53.6739","EPOCH":"2023-03-02T16:35:49.729056"},{"TLE_LINE2":"2 45383  53.0538  59.1852 0001137  95.5188 264.5931 15.06419603163721","LAUNCH_DATE":"2020-03-18","PERIAPSIS":"546.366","MEAN_MOTION_DDOT":"0.0000000000000","ECCENTRICITY":"0.00011370","REV_AT_EPOCH":"16372","TIME_SYSTEM":"UTC","RCS_SIZE":"LARGE","INCLINATION":"53.0538","OBJECT_NAME":"STARLINK-1266","ARG_OF_PERICENTER":"95.5188","CENTER_NAME":"EARTH","CLASSIFICATION_TYPE":"U","ELEMENT_SET_NO":"999","NORAD_CAT_ID":"45383","MEAN_ELEMENT_THEORY":"SGP4","FILE":"3849487","EPOCH":"2023-03-02T11:11:43.390752","RA_OF_ASC_NODE":"59.1852","COUNTRY_CODE":"US","SEMIMAJOR_AXIS":"6925.288","APOAPSIS":"547.941","MEAN_MOTION":"15.06419603","GP_ID":"227358690","DECAY_DATE":null,"OBJECT_ID":"2020-019Z","MEAN_ANOMALY":"264.5931","OBJECT_TYPE":"PAYLOAD","BSTAR":"0.00151890000000","PERIOD":"95.591","SITE":"AFETR","TLE_LINE1":"1 45383U 20019Z   23061.46647443  .00022427  00000-0  15189-2 0  9998","MEAN_MOTION_DOT":"0.00022427","REF_FRAME":"TEME","EPHEMERIS_TYPE":"0"},{"EPHEMERIS_TYPE":"0","MEAN_MOTION_DOT":"0.00009990","REF_FRAME":"TEME","TLE_LINE1":"1 45384U 20019AA  23061.71985954  .00009990  00000-0  68838-3 0  9999","SITE":"AFETR","BSTAR":"0.00068838000000","PERIOD":"95.591","OBJECT_TYPE":"PAYLOAD","GP_ID":"227358447","DECAY_DATE":null,"MEAN_MOTION":"15.06410984","MEAN_ANOMALY":"265.3874","OBJECT_ID":"2020-019AA","RA_OF_ASC_NODE":"58.0352","EPOCH":"2023-03-02T17:16:35.864256","APOAPSIS":"547.938","SEMIMAJOR_AXIS":"6925.315","COUNTRY_CODE":"US","FILE":"3849487","NORAD_CAT_ID":"45384","MEAN_ELEMENT_THEORY":"SGP4","ELEMENT_SET_NO":"999","CLASSIFICATION_TYPE":"U","CENTER_NAME":"EARTH","ARG_OF_PERICENTER":"94.7239","ECCENTRICITY":"0.00010940","MEAN_MOTION_DDOT":"0.0000000000000","RCS_SIZE":"LARGE","INCLINATION":"53.0541","TIME_SYSTEM":"UTC","OBJECT_NAME":"STARLINK-1267","REV_AT_EPOCH":"16376","LAUNCH_DATE":"2020-03-18","TLE_LINE2":"2 45384  53.0541  58.0352 0001094  94.7239 265.3874 15.06410984163761","PERIAPSIS":"546.422"},{"ARG_OF_PERICENTER":"103.1336","CENTER_NAME":"EARTH","CLASSIFICATION_TYPE":"U","TLE_LINE2":"2 45386  53.0540  58.0174 0001050 103.1336 256.9770 15.06414569163763","LAUNCH_DATE":"2020-03-18","PERIAPSIS":"546.442","MEAN_MOTION_DDOT":"0.0000000000000","ECCENTRICITY":"0.00010500","REV_AT_EPOCH":"16376","RCS_SIZE":"LARGE","OBJECT_NAME":"STARLINK-1272","INCLINATION":"53.0540","TIME_SYSTEM":"UTC","FILE":"3849487","ELEMENT_SET_NO":"999","NORAD_CAT_ID":"45386","MEAN_ELEMENT_THEORY":"SGP4","EPOCH":"2023-03-02T17:23:16.126080","RA_OF_ASC_NODE":"58.0174","COUNTRY_CODE":"US","SEMIMAJOR_AXIS":"6925.304","APOAPSIS":"547.896","MEAN_MOTION":"15.06414569","GP_ID":"227357689","DECAY_DATE":null,"OBJECT_ID":"2020-019AC","MEAN_ANOMALY":"256.9770","MEAN_MOTION_DOT":"0.00016894","REF_FRAME":"TEME","EPHEMERIS_TYPE":"0","OBJECT_TYPE":"PAYLOAD","PERIOD":"95.591","BSTAR":"0.00114990000000","SITE":"AFETR","TLE_LINE1":"1 45386U 20019AC  23061.72449220  .00016894  00000-0  11499-2 0  9994"},{"EPHEMERIS_TYPE":"0","MEAN_MOTION_DOT":"0.00016759","REF_FRAME":"TEME","BSTAR":"0.00114090000000","PERIOD":"95.591","SITE":"AFETR","TLE_LINE1":"1 45387U 20019AD  23061.68025614  .00016759  00000-0  11409-2 0  9998","OBJECT_TYPE":"PAYLOAD","MEAN_MOTION":"15.06412242","GP_ID":"227357939","DECAY_DATE":null,"OBJECT_ID":"2020-019AD","MEAN_ANOMALY":"268.8026","EPOCH":"2023-03-02T16:19:34.130496","RA_OF_ASC_NODE":"58.2168","SEMIMAJOR_AXIS":"6925.311","COUNTRY_CODE":"US","APOAPSIS":"548.421","FILE":"3849487","NORAD_CAT_ID":"45387","MEAN_ELEMENT_THEORY":"SGP4","ELEMENT_SET_NO":"999","CENTER_NAME":"EARTH","ARG_OF_PERICENTER":"91.3169","CLASSIFICATION_TYPE":"U","MEAN_MOTION_DDOT":"0.0000000000000","ECCENTRICITY":"0.00017970","REV_AT_EPOCH":"16375","TIME_SYSTEM":"UTC","RCS_SIZE":"LARGE","INCLINATION":"53.0542","OBJECT_NAME":"STARLINK-1274","LAUNCH_DATE":"2020-03-18","TLE_LINE2":"2 45387  53.0542  58.2168 0001797  91.3169 268.8026 15.06412242163752","PERIAPSIS":"545.932"}];
